{
    "Christmas Island": {
        "title": "Christmas Island",
        "flag": "https://flagcdn.com/cx.svg",
        "phone_code": "+61",
        "native_name": "Christmas Island",
        "emoji_flag": "ğŸ‡¨ğŸ‡½"
    },
    "Eritrea": {
        "title": "Eritrea",
        "flag": "https://flagcdn.com/er.svg",
        "phone_code": "+291",
        "native_name": "Ø¥Ø±ØªØ±ÙŠØ§â€",
        "emoji_flag": "ğŸ‡ªğŸ‡·"
    },
    "Samoa": {
        "title": "Samoa",
        "flag": "https://flagcdn.com/ws.svg",
        "phone_code": "+685",
        "native_name": "Samoa",
        "emoji_flag": "ğŸ‡¼ğŸ‡¸"
    },
    "North Macedonia": {
        "title": "North Macedonia",
        "flag": "https://flagcdn.com/mk.svg",
        "phone_code": "+389",
        "native_name": "ĞœĞ°ĞºĞµĞ´Ğ¾Ğ½Ğ¸Ñ˜Ğ°",
        "emoji_flag": "ğŸ‡²ğŸ‡°"
    },
    "Djibouti": {
        "title": "Djibouti",
        "flag": "https://flagcdn.com/dj.svg",
        "phone_code": "+253",
        "native_name": "Ø¬ÙŠØ¨ÙˆØªÙŠâ€",
        "emoji_flag": "ğŸ‡©ğŸ‡¯"
    },
    "Jordan": {
        "title": "Jordan",
        "flag": "https://flagcdn.com/jo.svg",
        "phone_code": "+962",
        "native_name": "Ø§Ù„Ø£Ø±Ø¯Ù†",
        "emoji_flag": "ğŸ‡¯ğŸ‡´"
    },
    "Pakistan": {
        "title": "Pakistan",
        "flag": "https://flagcdn.com/pk.svg",
        "phone_code": "+92",
        "native_name": "Pakistan",
        "emoji_flag": "ğŸ‡µğŸ‡°"
    },
    "French Polynesia": {
        "title": "French Polynesia",
        "flag": "https://flagcdn.com/pf.svg",
        "phone_code": "+689",
        "native_name": "PolynÃ©sie franÃ§aise",
        "emoji_flag": "ğŸ‡µğŸ‡«"
    },
    "Ireland": {
        "title": "Ireland",
        "flag": "https://flagcdn.com/ie.svg",
        "phone_code": "+353",
        "native_name": "Ireland",
        "emoji_flag": "ğŸ‡®ğŸ‡ª"
    },
    "Mauritania": {
        "title": "Mauritania",
        "flag": "https://flagcdn.com/mr.svg",
        "phone_code": "+222",
        "native_name": "Ù…ÙˆØ±ÙŠØªØ§Ù†ÙŠØ§",
        "emoji_flag": "ğŸ‡²ğŸ‡·"
    },
    "Denmark": {
        "title": "Denmark",
        "flag": "https://flagcdn.com/dk.svg",
        "phone_code": "+45",
        "native_name": "Danmark",
        "emoji_flag": "ğŸ‡©ğŸ‡°"
    },
    "Namibia": {
        "title": "Namibia",
        "flag": "https://flagcdn.com/na.svg",
        "phone_code": "+264",
        "native_name": "NamibiÃ«",
        "emoji_flag": "ğŸ‡³ğŸ‡¦"
    },
    "Ghana": {
        "title": "Ghana",
        "flag": "https://flagcdn.com/gh.svg",
        "phone_code": "+233",
        "native_name": "Ghana",
        "emoji_flag": "ğŸ‡¬ğŸ‡­"
    },
    "South Sudan": {
        "title": "South Sudan",
        "flag": "https://flagcdn.com/ss.svg",
        "phone_code": "+211",
        "native_name": "South Sudan",
        "emoji_flag": "ğŸ‡¸ğŸ‡¸"
    },
    "Slovakia": {
        "title": "Slovakia",
        "flag": "https://flagcdn.com/sk.svg",
        "phone_code": "+421",
        "native_name": "Slovensko",
        "emoji_flag": "ğŸ‡¸ğŸ‡°"
    },
    "American Samoa": {
        "title": "American Samoa",
        "flag": "https://flagcdn.com/as.svg",
        "phone_code": "+1684",
        "native_name": "American Samoa",
        "emoji_flag": "ğŸ‡¦ğŸ‡¸"
    },
    "Moldova": {
        "title": "Moldova",
        "flag": "https://flagcdn.com/md.svg",
        "phone_code": "+373",
        "native_name": "Moldova",
        "emoji_flag": "ğŸ‡²ğŸ‡©"
    },
    "North Korea": {
        "title": "North Korea",
        "flag": "https://flagcdn.com/kp.svg",
        "phone_code": "+850",
        "native_name": "ì¡°ì„ ",
        "emoji_flag": "ğŸ‡°ğŸ‡µ"
    },
    "Macau": {
        "title": "Macau",
        "flag": "https://flagcdn.com/mo.svg",
        "phone_code": "+853",
        "native_name": "Macau",
        "emoji_flag": "ğŸ‡²ğŸ‡´"
    },
    "Turks and Caicos Islands": {
        "title": "Turks and Caicos Islands",
        "flag": "https://flagcdn.com/tc.svg",
        "phone_code": "+1649",
        "native_name": "Turks and Caicos Islands",
        "emoji_flag": "ğŸ‡¹ğŸ‡¨"
    },
    "Seychelles": {
        "title": "Seychelles",
        "flag": "https://flagcdn.com/sc.svg",
        "phone_code": "+248",
        "native_name": "Sesel",
        "emoji_flag": "ğŸ‡¸ğŸ‡¨"
    },
    "Armenia": {
        "title": "Armenia",
        "flag": "https://flagcdn.com/am.svg",
        "phone_code": "+374",
        "native_name": "Õ€Õ¡ÕµÕ¡Õ½Õ¿Õ¡Õ¶",
        "emoji_flag": "ğŸ‡¦ğŸ‡²"
    },
    "CuraÃ§ao": {
        "title": "CuraÃ§ao",
        "flag": "https://flagcdn.com/cw.svg",
        "phone_code": "+599",
        "native_name": "CuraÃ§ao",
        "emoji_flag": "ğŸ‡¨ğŸ‡¼"
    },
    "Guadeloupe": {
        "title": "Guadeloupe",
        "flag": "https://flagcdn.com/gp.svg",
        "phone_code": "+590",
        "native_name": "Guadeloupe",
        "emoji_flag": "ğŸ‡¬ğŸ‡µ"
    },
    "British Indian Ocean Territory": {
        "title": "British Indian Ocean Territory",
        "flag": "https://flagcdn.com/io.svg",
        "phone_code": "+246",
        "native_name": "British Indian Ocean Territory",
        "emoji_flag": "ğŸ‡®ğŸ‡´"
    },
    "Equatorial Guinea": {
        "title": "Equatorial Guinea",
        "flag": "https://flagcdn.com/gq.svg",
        "phone_code": "+240",
        "native_name": "GuinÃ©e Ã©quatoriale",
        "emoji_flag": "ğŸ‡¬ğŸ‡¶"
    },
    "Syria": {
        "title": "Syria",
        "flag": "https://flagcdn.com/sy.svg",
        "phone_code": "+963",
        "native_name": "Ø³ÙˆØ±ÙŠØ§",
        "emoji_flag": "ğŸ‡¸ğŸ‡¾"
    },
    "Angola": {
        "title": "Angola",
        "flag": "https://flagcdn.com/ao.svg",
        "phone_code": "+244",
        "native_name": "Angola",
        "emoji_flag": "ğŸ‡¦ğŸ‡´"
    },
    "Tajikistan": {
        "title": "Tajikistan",
        "flag": "https://flagcdn.com/tj.svg",
        "phone_code": "+992",
        "native_name": "Ğ¢Ğ°Ğ´Ğ¶Ğ¸ĞºĞ¸ÑÑ‚Ğ°Ğ½",
        "emoji_flag": "ğŸ‡¹ğŸ‡¯"
    },
    "Venezuela": {
        "title": "Venezuela",
        "flag": "https://flagcdn.com/ve.svg",
        "phone_code": "+58",
        "native_name": "Venezuela",
        "emoji_flag": "ğŸ‡»ğŸ‡ª"
    },
    "United States Minor Outlying Islands": {
        "title": "United States Minor Outlying Islands",
        "flag": "https://flagcdn.com/um.svg",
        "phone_code": "+268",
        "native_name": "United States Minor Outlying Islands",
        "emoji_flag": "ğŸ‡ºğŸ‡²"
    },
    "Ã…land Islands": {
        "title": "Ã…land Islands",
        "flag": "https://flagcdn.com/ax.svg",
        "phone_code": "+35818",
        "native_name": "Ã…land",
        "emoji_flag": "ğŸ‡¦ğŸ‡½"
    },
    "Poland": {
        "title": "Poland",
        "flag": "https://flagcdn.com/pl.svg",
        "phone_code": "+48",
        "native_name": "Polska",
        "emoji_flag": "ğŸ‡µğŸ‡±"
    },
    "Saudi Arabia": {
        "title": "Saudi Arabia",
        "flag": "https://flagcdn.com/sa.svg",
        "phone_code": "+966",
        "native_name": "Ø§Ù„Ø¹Ø±Ø¨ÙŠØ© Ø§Ù„Ø³Ø¹ÙˆØ¯ÙŠØ©",
        "emoji_flag": "ğŸ‡¸ğŸ‡¦"
    },
    "Republic of the Congo": {
        "title": "Republic of the Congo",
        "flag": "https://flagcdn.com/cg.svg",
        "phone_code": "+242",
        "native_name": "RÃ©publique du Congo",
        "emoji_flag": "ğŸ‡¨ğŸ‡¬"
    },
    "Bosnia and Herzegovina": {
        "title": "Bosnia and Herzegovina",
        "flag": "https://flagcdn.com/ba.svg",
        "phone_code": "+387",
        "native_name": "Bosna i Hercegovina",
        "emoji_flag": "ğŸ‡§ğŸ‡¦"
    },
    "United States Virgin Islands": {
        "title": "United States Virgin Islands",
        "flag": "https://flagcdn.com/vi.svg",
        "phone_code": "+1340",
        "native_name": "United States Virgin Islands",
        "emoji_flag": "ğŸ‡»ğŸ‡®"
    },
    "New Caledonia": {
        "title": "New Caledonia",
        "flag": "https://flagcdn.com/nc.svg",
        "phone_code": "+687",
        "native_name": "Nouvelle-CalÃ©donie",
        "emoji_flag": "ğŸ‡³ğŸ‡¨"
    },
    "San Marino": {
        "title": "San Marino",
        "flag": "https://flagcdn.com/sm.svg",
        "phone_code": "+378",
        "native_name": "San Marino",
        "emoji_flag": "ğŸ‡¸ğŸ‡²"
    },
    "Czechia": {
        "title": "Czechia",
        "flag": "https://flagcdn.com/cz.svg",
        "phone_code": "+420",
        "native_name": "ÄŒesko",
        "emoji_flag": "ğŸ‡¨ğŸ‡¿"
    },
    "Guatemala": {
        "title": "Guatemala",
        "flag": "https://flagcdn.com/gt.svg",
        "phone_code": "+502",
        "native_name": "Guatemala",
        "emoji_flag": "ğŸ‡¬ğŸ‡¹"
    },
    "South Korea": {
        "title": "South Korea",
        "flag": "https://flagcdn.com/kr.svg",
        "phone_code": "+82",
        "native_name": "í•œêµ­",
        "emoji_flag": "ğŸ‡°ğŸ‡·"
    },
    "Estonia": {
        "title": "Estonia",
        "flag": "https://flagcdn.com/ee.svg",
        "phone_code": "+372",
        "native_name": "Eesti",
        "emoji_flag": "ğŸ‡ªğŸ‡ª"
    },
    "Nepal": {
        "title": "Nepal",
        "flag": "https://flagcdn.com/np.svg",
        "phone_code": "+977",
        "native_name": "à¤¨à¥‡à¤ªà¤¾à¤²",
        "emoji_flag": "ğŸ‡³ğŸ‡µ"
    },
    "Kosovo": {
        "title": "Kosovo",
        "flag": "https://flagcdn.com/xk.svg",
        "phone_code": "+383",
        "native_name": "Kosova",
        "emoji_flag": "ğŸ‡½ğŸ‡°"
    },
    "Botswana": {
        "title": "Botswana",
        "flag": "https://flagcdn.com/bw.svg",
        "phone_code": "+267",
        "native_name": "Botswana",
        "emoji_flag": "ğŸ‡§ğŸ‡¼"
    },
    "Philippines": {
        "title": "Philippines",
        "flag": "https://flagcdn.com/ph.svg",
        "phone_code": "+63",
        "native_name": "Philippines",
        "emoji_flag": "ğŸ‡µğŸ‡­"
    },
    "Saint Pierre and Miquelon": {
        "title": "Saint Pierre and Miquelon",
        "flag": "https://flagcdn.com/pm.svg",
        "phone_code": "+508",
        "native_name": "Saint-Pierre-et-Miquelon",
        "emoji_flag": "ğŸ‡µğŸ‡²"
    },
    "Iraq": {
        "title": "Iraq",
        "flag": "https://flagcdn.com/iq.svg",
        "phone_code": "+964",
        "native_name": "Ø§Ù„Ø¹Ø±Ø§Ù‚",
        "emoji_flag": "ğŸ‡®ğŸ‡¶"
    },
    "Lebanon": {
        "title": "Lebanon",
        "flag": "https://flagcdn.com/lb.svg",
        "phone_code": "+961",
        "native_name": "Ù„Ø¨Ù†Ø§Ù†",
        "emoji_flag": "ğŸ‡±ğŸ‡§"
    },
    "Burundi": {
        "title": "Burundi",
        "flag": "https://flagcdn.com/bi.svg",
        "phone_code": "+257",
        "native_name": "Burundi",
        "emoji_flag": "ğŸ‡§ğŸ‡®"
    },
    "Mongolia": {
        "title": "Mongolia",
        "flag": "https://flagcdn.com/mn.svg",
        "phone_code": "+976",
        "native_name": "ĞœĞ¾Ğ½Ğ³Ğ¾Ğ» ÑƒĞ»Ñ",
        "emoji_flag": "ğŸ‡²ğŸ‡³"
    },
    "Faroe Islands": {
        "title": "Faroe Islands",
        "flag": "https://flagcdn.com/fo.svg",
        "phone_code": "+298",
        "native_name": "FÃ¦rÃ¸erne",
        "emoji_flag": "ğŸ‡«ğŸ‡´"
    },
    "Paraguay": {
        "title": "Paraguay",
        "flag": "https://flagcdn.com/py.svg",
        "phone_code": "+595",
        "native_name": "ParaguÃ¡i",
        "emoji_flag": "ğŸ‡µğŸ‡¾"
    },
    "Svalbard and Jan Mayen": {
        "title": "Svalbard and Jan Mayen",
        "flag": "https://flagcdn.com/sj.svg",
        "phone_code": "+4779",
        "native_name": "Svalbard og Jan Mayen",
        "emoji_flag": "ğŸ‡¸ğŸ‡¯"
    },
    "Tokelau": {
        "title": "Tokelau",
        "flag": "https://flagcdn.com/tk.svg",
        "phone_code": "+690",
        "native_name": "Tokelau",
        "emoji_flag": "ğŸ‡¹ğŸ‡°"
    },
    "Guernsey": {
        "title": "Guernsey",
        "flag": "https://flagcdn.com/gg.svg",
        "phone_code": "+44",
        "native_name": "Guernsey",
        "emoji_flag": "ğŸ‡¬ğŸ‡¬"
    },
    "Caribbean Netherlands": {
        "title": "Caribbean Netherlands",
        "flag": "https://flagcdn.com/bq.svg",
        "phone_code": "+599",
        "native_name": "",
        "emoji_flag": "ğŸ‡§ğŸ‡¶"
    },
    "Algeria": {
        "title": "Algeria",
        "flag": "https://flagcdn.com/dz.svg",
        "phone_code": "+213",
        "native_name": "Ø§Ù„Ø¬Ø²Ø§Ø¦Ø±",
        "emoji_flag": "ğŸ‡©ğŸ‡¿"
    },
    "France": {
        "title": "France",
        "flag": "https://flagcdn.com/fr.svg",
        "phone_code": "+33",
        "native_name": "France",
        "emoji_flag": "ğŸ‡«ğŸ‡·"
    },
    "Netherlands": {
        "title": "Netherlands",
        "flag": "https://flagcdn.com/nl.svg",
        "phone_code": "+31",
        "native_name": "Nederland",
        "emoji_flag": "ğŸ‡³ğŸ‡±"
    },
    "Greenland": {
        "title": "Greenland",
        "flag": "https://flagcdn.com/gl.svg",
        "phone_code": "+299",
        "native_name": "Kalaallit Nunaat",
        "emoji_flag": "ğŸ‡¬ğŸ‡±"
    },
    "Sint Maarten": {
        "title": "Sint Maarten",
        "flag": "https://flagcdn.com/sx.svg",
        "phone_code": "+1721",
        "native_name": "Sint Maarten",
        "emoji_flag": "ğŸ‡¸ğŸ‡½"
    },
    "Chad": {
        "title": "Chad",
        "flag": "https://flagcdn.com/td.svg",
        "phone_code": "+235",
        "native_name": "ØªØ´Ø§Ø¯â€",
        "emoji_flag": "ğŸ‡¹ğŸ‡©"
    },
    "Finland": {
        "title": "Finland",
        "flag": "https://flagcdn.com/fi.svg",
        "phone_code": "+358",
        "native_name": "Suomi",
        "emoji_flag": "ğŸ‡«ğŸ‡®"
    },
    "Panama": {
        "title": "Panama",
        "flag": "https://flagcdn.com/pa.svg",
        "phone_code": "+507",
        "native_name": "PanamÃ¡",
        "emoji_flag": "ğŸ‡µğŸ‡¦"
    },
    "Palestine": {
        "title": "Palestine",
        "flag": "https://flagcdn.com/ps.svg",
        "phone_code": "+970",
        "native_name": "ÙÙ„Ø³Ø·ÙŠÙ†",
        "emoji_flag": "ğŸ‡µğŸ‡¸"
    },
    "Yemen": {
        "title": "Yemen",
        "flag": "https://flagcdn.com/ye.svg",
        "phone_code": "+967",
        "native_name": "Ø§Ù„ÙŠÙÙ…ÙÙ†",
        "emoji_flag": "ğŸ‡¾ğŸ‡ª"
    },
    "Brazil": {
        "title": "Brazil",
        "flag": "https://flagcdn.com/br.svg",
        "phone_code": "+55",
        "native_name": "Brasil",
        "emoji_flag": "ğŸ‡§ğŸ‡·"
    },
    "Nigeria": {
        "title": "Nigeria",
        "flag": "https://flagcdn.com/ng.svg",
        "phone_code": "+234",
        "native_name": "Nigeria",
        "emoji_flag": "ğŸ‡³ğŸ‡¬"
    },
    "Palau": {
        "title": "Palau",
        "flag": "https://flagcdn.com/pw.svg",
        "phone_code": "+680",
        "native_name": "Palau",
        "emoji_flag": "ğŸ‡µğŸ‡¼"
    },
    "Japan": {
        "title": "Japan",
        "flag": "https://flagcdn.com/jp.svg",
        "phone_code": "+81",
        "native_name": "æ—¥æœ¬",
        "emoji_flag": "ğŸ‡¯ğŸ‡µ"
    },
    "Tanzania": {
        "title": "Tanzania",
        "flag": "https://flagcdn.com/tz.svg",
        "phone_code": "+255",
        "native_name": "Tanzania",
        "emoji_flag": "ğŸ‡¹ğŸ‡¿"
    },
    "Kazakhstan": {
        "title": "Kazakhstan",
        "flag": "https://flagcdn.com/kz.svg",
        "phone_code": "+76",
        "native_name": "ÒšĞ°Ğ·Ğ°Ò›ÑÑ‚Ğ°Ğ½",
        "emoji_flag": "ğŸ‡°ğŸ‡¿"
    },
    "Portugal": {
        "title": "Portugal",
        "flag": "https://flagcdn.com/pt.svg",
        "phone_code": "+351",
        "native_name": "Portugal",
        "emoji_flag": "ğŸ‡µğŸ‡¹"
    },
    "South Georgia": {
        "title": "South Georgia",
        "flag": "https://flagcdn.com/gs.svg",
        "phone_code": "+500",
        "native_name": "South Georgia",
        "emoji_flag": "ğŸ‡¬ğŸ‡¸"
    },
    "Sri Lanka": {
        "title": "Sri Lanka",
        "flag": "https://flagcdn.com/lk.svg",
        "phone_code": "+94",
        "native_name": "à·à·Šâ€à¶»à·“ à¶½à¶‚à¶šà·à·€",
        "emoji_flag": "ğŸ‡±ğŸ‡°"
    },
    "Germany": {
        "title": "Germany",
        "flag": "https://flagcdn.com/de.svg",
        "phone_code": "+49",
        "native_name": "Deutschland",
        "emoji_flag": "ğŸ‡©ğŸ‡ª"
    },
    "Western Sahara": {
        "title": "Western Sahara",
        "flag": "https://flagcdn.com/eh.svg",
        "phone_code": "+2125288",
        "native_name": "Western Sahara",
        "emoji_flag": "ğŸ‡ªğŸ‡­"
    },
    "Myanmar": {
        "title": "Myanmar",
        "flag": "https://flagcdn.com/mm.svg",
        "phone_code": "+95",
        "native_name": "á€™á€¼á€”á€ºá€™á€¬",
        "emoji_flag": "ğŸ‡²ğŸ‡²"
    },
    "Colombia": {
        "title": "Colombia",
        "flag": "https://flagcdn.com/co.svg",
        "phone_code": "+57",
        "native_name": "Colombia",
        "emoji_flag": "ğŸ‡¨ğŸ‡´"
    },
    "Peru": {
        "title": "Peru",
        "flag": "https://flagcdn.com/pe.svg",
        "phone_code": "+51",
        "native_name": "Piruw",
        "emoji_flag": "ğŸ‡µğŸ‡ª"
    },
    "Senegal": {
        "title": "Senegal",
        "flag": "https://flagcdn.com/sn.svg",
        "phone_code": "+221",
        "native_name": "SÃ©nÃ©gal",
        "emoji_flag": "ğŸ‡¸ğŸ‡³"
    },
    "Kyrgyzstan": {
        "title": "Kyrgyzstan",
        "flag": "https://flagcdn.com/kg.svg",
        "phone_code": "+996",
        "native_name": "ĞšÑ‹Ñ€Ğ³Ñ‹Ğ·ÑÑ‚Ğ°Ğ½",
        "emoji_flag": "ğŸ‡°ğŸ‡¬"
    },
    "China": {
        "title": "China",
        "flag": "https://flagcdn.com/cn.svg",
        "phone_code": "+86",
        "native_name": "ä¸­å›½",
        "emoji_flag": "ğŸ‡¨ğŸ‡³"
    },
    "Afghanistan": {
        "title": "Afghanistan",
        "flag": "https://upload.wikimedia.org/wikipedia/commons/5/5c/Flag_of_the_Taliban.svg",
        "phone_code": "+93",
        "native_name": "Ø§ÙØºØ§Ù†Ø³ØªØ§Ù†",
        "emoji_flag": "ğŸ‡¦ğŸ‡«"
    },
    "Turkey": {
        "title": "Turkey",
        "flag": "https://flagcdn.com/tr.svg",
        "phone_code": "+90",
        "native_name": "TÃ¼rkiye",
        "emoji_flag": "ğŸ‡¹ğŸ‡·"
    },
    "Liberia": {
        "title": "Liberia",
        "flag": "https://flagcdn.com/lr.svg",
        "phone_code": "+231",
        "native_name": "Liberia",
        "emoji_flag": "ğŸ‡±ğŸ‡·"
    },
    "South Africa": {
        "title": "South Africa",
        "flag": "https://flagcdn.com/za.svg",
        "phone_code": "+27",
        "native_name": "South Africa",
        "emoji_flag": "ğŸ‡¿ğŸ‡¦"
    },
    "Chile": {
        "title": "Chile",
        "flag": "https://flagcdn.com/cl.svg",
        "phone_code": "+56",
        "native_name": "Chile",
        "emoji_flag": "ğŸ‡¨ğŸ‡±"
    },
    "Malta": {
        "title": "Malta",
        "flag": "https://flagcdn.com/mt.svg",
        "phone_code": "+356",
        "native_name": "Malta",
        "emoji_flag": "ğŸ‡²ğŸ‡¹"
    },
    "Kiribati": {
        "title": "Kiribati",
        "flag": "https://flagcdn.com/ki.svg",
        "phone_code": "+686",
        "native_name": "Kiribati",
        "emoji_flag": "ğŸ‡°ğŸ‡®"
    },
    "Cape Verde": {
        "title": "Cape Verde",
        "flag": "https://flagcdn.com/cv.svg",
        "phone_code": "+238",
        "native_name": "Cabo Verde",
        "emoji_flag": "ğŸ‡¨ğŸ‡»"
    },
    "Jersey": {
        "title": "Jersey",
        "flag": "https://flagcdn.com/je.svg",
        "phone_code": "+44",
        "native_name": "Jersey",
        "emoji_flag": "ğŸ‡¯ğŸ‡ª"
    },
    "Iceland": {
        "title": "Iceland",
        "flag": "https://flagcdn.com/is.svg",
        "phone_code": "+354",
        "native_name": "Ãsland",
        "emoji_flag": "ğŸ‡®ğŸ‡¸"
    },
    "Gambia": {
        "title": "Gambia",
        "flag": "https://flagcdn.com/gm.svg",
        "phone_code": "+220",
        "native_name": "Gambia",
        "emoji_flag": "ğŸ‡¬ğŸ‡²"
    },
    "Vanuatu": {
        "title": "Vanuatu",
        "flag": "https://flagcdn.com/vu.svg",
        "phone_code": "+678",
        "native_name": "Vanuatu",
        "emoji_flag": "ğŸ‡»ğŸ‡º"
    },
    "Uruguay": {
        "title": "Uruguay",
        "flag": "https://flagcdn.com/uy.svg",
        "phone_code": "+598",
        "native_name": "Uruguay",
        "emoji_flag": "ğŸ‡ºğŸ‡¾"
    },
    "Oman": {
        "title": "Oman",
        "flag": "https://flagcdn.com/om.svg",
        "phone_code": "+968",
        "native_name": "Ø¹Ù…Ø§Ù†",
        "emoji_flag": "ğŸ‡´ğŸ‡²"
    },
    "Sudan": {
        "title": "Sudan",
        "flag": "https://flagcdn.com/sd.svg",
        "phone_code": "+249",
        "native_name": "Ø§Ù„Ø³ÙˆØ¯Ø§Ù†",
        "emoji_flag": "ğŸ‡¸ğŸ‡©"
    },
    "India": {
        "title": "India",
        "flag": "https://flagcdn.com/in.svg",
        "phone_code": "+91",
        "native_name": "India",
        "emoji_flag": "ğŸ‡®ğŸ‡³"
    },
    "Laos": {
        "title": "Laos",
        "flag": "https://flagcdn.com/la.svg",
        "phone_code": "+856",
        "native_name": "àºªàº›àº›àº¥àº²àº§",
        "emoji_flag": "ğŸ‡±ğŸ‡¦"
    },
    "Aruba": {
        "title": "Aruba",
        "flag": "https://flagcdn.com/aw.svg",
        "phone_code": "+297",
        "native_name": "Aruba",
        "emoji_flag": "ğŸ‡¦ğŸ‡¼"
    },
    "Martinique": {
        "title": "Martinique",
        "flag": "https://flagcdn.com/mq.svg",
        "phone_code": "+596",
        "native_name": "Martinique",
        "emoji_flag": "ğŸ‡²ğŸ‡¶"
    },
    "Comoros": {
        "title": "Comoros",
        "flag": "https://flagcdn.com/km.svg",
        "phone_code": "+269",
        "native_name": "Ø§Ù„Ù‚Ù…Ø±â€",
        "emoji_flag": "ğŸ‡°ğŸ‡²"
    },
    "Spain": {
        "title": "Spain",
        "flag": "https://flagcdn.com/es.svg",
        "phone_code": "+34",
        "native_name": "EspaÃ±a",
        "emoji_flag": "ğŸ‡ªğŸ‡¸"
    },
    "Antigua and Barbuda": {
        "title": "Antigua and Barbuda",
        "flag": "https://flagcdn.com/ag.svg",
        "phone_code": "+1268",
        "native_name": "Antigua and Barbuda",
        "emoji_flag": "ğŸ‡¦ğŸ‡¬"
    },
    "Uzbekistan": {
        "title": "Uzbekistan",
        "flag": "https://flagcdn.com/uz.svg",
        "phone_code": "+998",
        "native_name": "Ğ£Ğ·Ğ±ĞµĞºĞ¸ÑÑ‚Ğ°Ğ½",
        "emoji_flag": "ğŸ‡ºğŸ‡¿"
    },
    "Maldives": {
        "title": "Maldives",
        "flag": "https://flagcdn.com/mv.svg",
        "phone_code": "+960",
        "native_name": "Ş‹Ş¨ŞˆŞ¬Ş€Ş¨ŞƒŞ§Ş‡Ş°Ş–Ş­ŞŞ¬",
        "emoji_flag": "ğŸ‡²ğŸ‡»"
    },
    "Gibraltar": {
        "title": "Gibraltar",
        "flag": "https://flagcdn.com/gi.svg",
        "phone_code": "+350",
        "native_name": "Gibraltar",
        "emoji_flag": "ğŸ‡¬ğŸ‡®"
    },
    "Indonesia": {
        "title": "Indonesia",
        "flag": "https://flagcdn.com/id.svg",
        "phone_code": "+62",
        "native_name": "Indonesia",
        "emoji_flag": "ğŸ‡®ğŸ‡©"
    },
    "Pitcairn Islands": {
        "title": "Pitcairn Islands",
        "flag": "https://flagcdn.com/pn.svg",
        "phone_code": "+64",
        "native_name": "Pitcairn Islands",
        "emoji_flag": "ğŸ‡µğŸ‡³"
    },
    "Vietnam": {
        "title": "Vietnam",
        "flag": "https://flagcdn.com/vn.svg",
        "phone_code": "+84",
        "native_name": "Viá»‡t Nam",
        "emoji_flag": "ğŸ‡»ğŸ‡³"
    },
    "Malaysia": {
        "title": "Malaysia",
        "flag": "https://flagcdn.com/my.svg",
        "phone_code": "+60",
        "native_name": "Malaysia",
        "emoji_flag": "ğŸ‡²ğŸ‡¾"
    },
    "Cook Islands": {
        "title": "Cook Islands",
        "flag": "https://flagcdn.com/ck.svg",
        "phone_code": "+682",
        "native_name": "Cook Islands",
        "emoji_flag": "ğŸ‡¨ğŸ‡°"
    },
    "Eswatini": {
        "title": "Eswatini",
        "flag": "https://flagcdn.com/sz.svg",
        "phone_code": "+268",
        "native_name": "Eswatini",
        "emoji_flag": "ğŸ‡¸ğŸ‡¿"
    },
    "Uganda": {
        "title": "Uganda",
        "flag": "https://flagcdn.com/ug.svg",
        "phone_code": "+256",
        "native_name": "Uganda",
        "emoji_flag": "ğŸ‡ºğŸ‡¬"
    },
    "Madagascar": {
        "title": "Madagascar",
        "flag": "https://flagcdn.com/mg.svg",
        "phone_code": "+261",
        "native_name": "Madagascar",
        "emoji_flag": "ğŸ‡²ğŸ‡¬"
    },
    "Fiji": {
        "title": "Fiji",
        "flag": "https://flagcdn.com/fj.svg",
        "phone_code": "+679",
        "native_name": "Fiji",
        "emoji_flag": "ğŸ‡«ğŸ‡¯"
    },
    "Norway": {
        "title": "Norway",
        "flag": "https://flagcdn.com/no.svg",
        "phone_code": "+47",
        "native_name": "Noreg",
        "emoji_flag": "ğŸ‡³ğŸ‡´"
    },
    "Bouvet Island": {
        "title": "Bouvet Island",
        "flag": "https://flagcdn.com/bv.svg",
        "phone_code": "+47",
        "native_name": "BouvetÃ¸ya",
        "emoji_flag": "ğŸ‡§ğŸ‡»"
    },
    "Cyprus": {
        "title": "Cyprus",
        "flag": "https://flagcdn.com/cy.svg",
        "phone_code": "+357",
        "native_name": "ÎšÏÏ€ÏÎ¿Ï‚",
        "emoji_flag": "ğŸ‡¨ğŸ‡¾"
    },
    "Taiwan": {
        "title": "Taiwan",
        "flag": "https://flagcdn.com/tw.svg",
        "phone_code": "+886",
        "native_name": "å°ç£",
        "emoji_flag": "ğŸ‡¹ğŸ‡¼"
    },
    "Papua New Guinea": {
        "title": "Papua New Guinea",
        "flag": "https://flagcdn.com/pg.svg",
        "phone_code": "+675",
        "native_name": "Papua New Guinea",
        "emoji_flag": "ğŸ‡µğŸ‡¬"
    },
    "Rwanda": {
        "title": "Rwanda",
        "flag": "https://flagcdn.com/rw.svg",
        "phone_code": "+250",
        "native_name": "Rwanda",
        "emoji_flag": "ğŸ‡·ğŸ‡¼"
    },
    "DR Congo": {
        "title": "DR Congo",
        "flag": "https://flagcdn.com/cd.svg",
        "phone_code": "+243",
        "native_name": "RD Congo",
        "emoji_flag": "ğŸ‡¨ğŸ‡©"
    },
    "Cameroon": {
        "title": "Cameroon",
        "flag": "https://flagcdn.com/cm.svg",
        "phone_code": "+237",
        "native_name": "Cameroon",
        "emoji_flag": "ğŸ‡¨ğŸ‡²"
    },
    "Serbia": {
        "title": "Serbia",
        "flag": "https://flagcdn.com/rs.svg",
        "phone_code": "+381",
        "native_name": "Ğ¡Ñ€Ğ±Ğ¸Ñ˜Ğ°",
        "emoji_flag": "ğŸ‡·ğŸ‡¸"
    },
    "Lithuania": {
        "title": "Lithuania",
        "flag": "https://flagcdn.com/lt.svg",
        "phone_code": "+370",
        "native_name": "Lietuva",
        "emoji_flag": "ğŸ‡±ğŸ‡¹"
    },
    "French Southern and Antarctic Lands": {
        "title": "French Southern and Antarctic Lands",
        "flag": "https://flagcdn.com/tf.svg",
        "phone_code": "+262",
        "native_name": "Terres australes et antarctiques franÃ§aises",
        "emoji_flag": "ğŸ‡¹ğŸ‡«"
    },
    "Cambodia": {
        "title": "Cambodia",
        "flag": "https://flagcdn.com/kh.svg",
        "phone_code": "+855",
        "native_name": "KÃ¢mpÅ­chÃ©a",
        "emoji_flag": "ğŸ‡°ğŸ‡­"
    },
    "Saint Helena, Ascension and Tristan da Cunha": {
        "title": "Saint Helena, Ascension and Tristan da Cunha",
        "flag": "https://flagcdn.com/sh.svg",
        "phone_code": "+290",
        "native_name": "Saint Helena, Ascension and Tristan da Cunha",
        "emoji_flag": "ğŸ‡¸ğŸ‡­"
    },
    "United Arab Emirates": {
        "title": "United Arab Emirates",
        "flag": "https://flagcdn.com/ae.svg",
        "phone_code": "+971",
        "native_name": "Ø¯ÙˆÙ„Ø© Ø§Ù„Ø¥Ù…Ø§Ø±Ø§Øª Ø§Ù„Ø¹Ø±Ø¨ÙŠØ© Ø§Ù„Ù…ØªØ­Ø¯Ø©",
        "emoji_flag": "ğŸ‡¦ğŸ‡ª"
    },
    "Bermuda": {
        "title": "Bermuda",
        "flag": "https://flagcdn.com/bm.svg",
        "phone_code": "+1441",
        "native_name": "Bermuda",
        "emoji_flag": "ğŸ‡§ğŸ‡²"
    },
    "Monaco": {
        "title": "Monaco",
        "flag": "https://flagcdn.com/mc.svg",
        "phone_code": "+377",
        "native_name": "Monaco",
        "emoji_flag": "ğŸ‡²ğŸ‡¨"
    },
    "Cuba": {
        "title": "Cuba",
        "flag": "https://flagcdn.com/cu.svg",
        "phone_code": "+53",
        "native_name": "Cuba",
        "emoji_flag": "ğŸ‡¨ğŸ‡º"
    },
    "Hong Kong": {
        "title": "Hong Kong",
        "flag": "https://flagcdn.com/hk.svg",
        "phone_code": "+852",
        "native_name": "Hong Kong",
        "emoji_flag": "ğŸ‡­ğŸ‡°"
    },
    "Northern Mariana Islands": {
        "title": "Northern Mariana Islands",
        "flag": "https://flagcdn.com/mp.svg",
        "phone_code": "+1670",
        "native_name": "Northern Mariana Islands",
        "emoji_flag": "ğŸ‡²ğŸ‡µ"
    },
    "Togo": {
        "title": "Togo",
        "flag": "https://flagcdn.com/tg.svg",
        "phone_code": "+228",
        "native_name": "Togo",
        "emoji_flag": "ğŸ‡¹ğŸ‡¬"
    },
    "Luxembourg": {
        "title": "Luxembourg",
        "flag": "https://flagcdn.com/lu.svg",
        "phone_code": "+352",
        "native_name": "Luxemburg",
        "emoji_flag": "ğŸ‡±ğŸ‡º"
    },
    "Mauritius": {
        "title": "Mauritius",
        "flag": "https://flagcdn.com/mu.svg",
        "phone_code": "+230",
        "native_name": "Mauritius",
        "emoji_flag": "ğŸ‡²ğŸ‡º"
    },
    "Argentina": {
        "title": "Argentina",
        "flag": "https://flagcdn.com/ar.svg",
        "phone_code": "+54",
        "native_name": "Argentina",
        "emoji_flag": "ğŸ‡¦ğŸ‡·"
    },
    "Grenada": {
        "title": "Grenada",
        "flag": "https://flagcdn.com/gd.svg",
        "phone_code": "+1473",
        "native_name": "Grenada",
        "emoji_flag": "ğŸ‡¬ğŸ‡©"
    },
    "Nicaragua": {
        "title": "Nicaragua",
        "flag": "https://flagcdn.com/ni.svg",
        "phone_code": "+505",
        "native_name": "Nicaragua",
        "emoji_flag": "ğŸ‡³ğŸ‡®"
    },
    "Niue": {
        "title": "Niue",
        "flag": "https://flagcdn.com/nu.svg",
        "phone_code": "+683",
        "native_name": "Niue",
        "emoji_flag": "ğŸ‡³ğŸ‡º"
    },
    "Ukraine": {
        "title": "Ukraine",
        "flag": "https://flagcdn.com/ua.svg",
        "phone_code": "+380",
        "native_name": "Ğ£ĞºÑ€Ğ°Ñ—Ğ½Ğ°",
        "emoji_flag": "ğŸ‡ºğŸ‡¦"
    },
    "Guyana": {
        "title": "Guyana",
        "flag": "https://flagcdn.com/gy.svg",
        "phone_code": "+592",
        "native_name": "Guyana",
        "emoji_flag": "ğŸ‡¬ğŸ‡¾"
    },
    "Niger": {
        "title": "Niger",
        "flag": "https://flagcdn.com/ne.svg",
        "phone_code": "+227",
        "native_name": "Niger",
        "emoji_flag": "ğŸ‡³ğŸ‡ª"
    },
    "Benin": {
        "title": "Benin",
        "flag": "https://flagcdn.com/bj.svg",
        "phone_code": "+229",
        "native_name": "BÃ©nin",
        "emoji_flag": "ğŸ‡§ğŸ‡¯"
    },
    "Saint Lucia": {
        "title": "Saint Lucia",
        "flag": "https://flagcdn.com/lc.svg",
        "phone_code": "+1758",
        "native_name": "Saint Lucia",
        "emoji_flag": "ğŸ‡±ğŸ‡¨"
    },
    "Tuvalu": {
        "title": "Tuvalu",
        "flag": "https://flagcdn.com/tv.svg",
        "phone_code": "+688",
        "native_name": "Tuvalu",
        "emoji_flag": "ğŸ‡¹ğŸ‡»"
    },
    "Norfolk Island": {
        "title": "Norfolk Island",
        "flag": "https://flagcdn.com/nf.svg",
        "phone_code": "+672",
        "native_name": "Norfolk Island",
        "emoji_flag": "ğŸ‡³ğŸ‡«"
    },
    "Egypt": {
        "title": "Egypt",
        "flag": "https://flagcdn.com/eg.svg",
        "phone_code": "+20",
        "native_name": "Ù…ØµØ±",
        "emoji_flag": "ğŸ‡ªğŸ‡¬"
    },
    "Saint Kitts and Nevis": {
        "title": "Saint Kitts and Nevis",
        "flag": "https://flagcdn.com/kn.svg",
        "phone_code": "+1869",
        "native_name": "Saint Kitts and Nevis",
        "emoji_flag": "ğŸ‡°ğŸ‡³"
    },
    "Lesotho": {
        "title": "Lesotho",
        "flag": "https://flagcdn.com/ls.svg",
        "phone_code": "+266",
        "native_name": "Lesotho",
        "emoji_flag": "ğŸ‡±ğŸ‡¸"
    },
    "Tonga": {
        "title": "Tonga",
        "flag": "https://flagcdn.com/to.svg",
        "phone_code": "+676",
        "native_name": "Tonga",
        "emoji_flag": "ğŸ‡¹ğŸ‡´"
    },
    "Georgia": {
        "title": "Georgia",
        "flag": "https://flagcdn.com/ge.svg",
        "phone_code": "+995",
        "native_name": "áƒ¡áƒáƒ¥áƒáƒ áƒ—áƒ•áƒ”áƒšáƒ",
        "emoji_flag": "ğŸ‡¬ğŸ‡ª"
    },
    "Ethiopia": {
        "title": "Ethiopia",
        "flag": "https://flagcdn.com/et.svg",
        "phone_code": "+251",
        "native_name": "áŠ¢á‰µá‹®áŒµá‹«",
        "emoji_flag": "ğŸ‡ªğŸ‡¹"
    },
    "Dominican Republic": {
        "title": "Dominican Republic",
        "flag": "https://flagcdn.com/do.svg",
        "phone_code": "+1809",
        "native_name": "RepÃºblica Dominicana",
        "emoji_flag": "ğŸ‡©ğŸ‡´"
    },
    "Saint Vincent and the Grenadines": {
        "title": "Saint Vincent and the Grenadines",
        "flag": "https://flagcdn.com/vc.svg",
        "phone_code": "+1784",
        "native_name": "Saint Vincent and the Grenadines",
        "emoji_flag": "ğŸ‡»ğŸ‡¨"
    },
    "Belize": {
        "title": "Belize",
        "flag": "https://flagcdn.com/bz.svg",
        "phone_code": "+501",
        "native_name": "Belize",
        "emoji_flag": "ğŸ‡§ğŸ‡¿"
    },
    "Isle of Man": {
        "title": "Isle of Man",
        "flag": "https://flagcdn.com/im.svg",
        "phone_code": "+44",
        "native_name": "Isle of Man",
        "emoji_flag": "ğŸ‡®ğŸ‡²"
    },
    "Morocco": {
        "title": "Morocco",
        "flag": "https://flagcdn.com/ma.svg",
        "phone_code": "+212",
        "native_name": "Ø§Ù„Ù…ØºØ±Ø¨",
        "emoji_flag": "ğŸ‡²ğŸ‡¦"
    },
    "Haiti": {
        "title": "Haiti",
        "flag": "https://flagcdn.com/ht.svg",
        "phone_code": "+509",
        "native_name": "HaÃ¯ti",
        "emoji_flag": "ğŸ‡­ğŸ‡¹"
    },
    "Mayotte": {
        "title": "Mayotte",
        "flag": "https://flagcdn.com/yt.svg",
        "phone_code": "+262",
        "native_name": "Mayotte",
        "emoji_flag": "ğŸ‡¾ğŸ‡¹"
    },
    "Burkina Faso": {
        "title": "Burkina Faso",
        "flag": "https://flagcdn.com/bf.svg",
        "phone_code": "+226",
        "native_name": "Burkina Faso",
        "emoji_flag": "ğŸ‡§ğŸ‡«"
    },
    "Bangladesh": {
        "title": "Bangladesh",
        "flag": "https://flagcdn.com/bd.svg",
        "phone_code": "+880",
        "native_name": "à¦¬à¦¾à¦‚à¦²à¦¾à¦¦à§‡à¦¶",
        "emoji_flag": "ğŸ‡§ğŸ‡©"
    },
    "Kuwait": {
        "title": "Kuwait",
        "flag": "https://flagcdn.com/kw.svg",
        "phone_code": "+965",
        "native_name": "Ø§Ù„ÙƒÙˆÙŠØª",
        "emoji_flag": "ğŸ‡°ğŸ‡¼"
    },
    "RÃ©union": {
        "title": "RÃ©union",
        "flag": "https://flagcdn.com/re.svg",
        "phone_code": "+262",
        "native_name": "La RÃ©union",
        "emoji_flag": "ğŸ‡·ğŸ‡ª"
    },
    "Jamaica": {
        "title": "Jamaica",
        "flag": "https://flagcdn.com/jm.svg",
        "phone_code": "+1876",
        "native_name": "Jamaica",
        "emoji_flag": "ğŸ‡¯ğŸ‡²"
    },
    "Romania": {
        "title": "Romania",
        "flag": "https://flagcdn.com/ro.svg",
        "phone_code": "+40",
        "native_name": "RomÃ¢nia",
        "emoji_flag": "ğŸ‡·ğŸ‡´"
    },
    "SÃ£o TomÃ© and PrÃ­ncipe": {
        "title": "SÃ£o TomÃ© and PrÃ­ncipe",
        "flag": "https://flagcdn.com/st.svg",
        "phone_code": "+239",
        "native_name": "SÃ£o TomÃ© e PrÃ­ncipe",
        "emoji_flag": "ğŸ‡¸ğŸ‡¹"
    },
    "Bahamas": {
        "title": "Bahamas",
        "flag": "https://flagcdn.com/bs.svg",
        "phone_code": "+1242",
        "native_name": "Bahamas",
        "emoji_flag": "ğŸ‡§ğŸ‡¸"
    },
    "Mexico": {
        "title": "Mexico",
        "flag": "https://flagcdn.com/mx.svg",
        "phone_code": "+52",
        "native_name": "MÃ©xico",
        "emoji_flag": "ğŸ‡²ğŸ‡½"
    },
    "Saint Martin": {
        "title": "Saint Martin",
        "flag": "https://flagcdn.com/mf.svg",
        "phone_code": "+590",
        "native_name": "Saint-Martin",
        "emoji_flag": "ğŸ‡²ğŸ‡«"
    },
    "El Salvador": {
        "title": "El Salvador",
        "flag": "https://flagcdn.com/sv.svg",
        "phone_code": "+503",
        "native_name": "El Salvador",
        "emoji_flag": "ğŸ‡¸ğŸ‡»"
    },
    "Saint BarthÃ©lemy": {
        "title": "Saint BarthÃ©lemy",
        "flag": "https://flagcdn.com/bl.svg",
        "phone_code": "+590",
        "native_name": "Saint-BarthÃ©lemy",
        "emoji_flag": "ğŸ‡§ğŸ‡±"
    },
    "Micronesia": {
        "title": "Micronesia",
        "flag": "https://flagcdn.com/fm.svg",
        "phone_code": "+691",
        "native_name": "Micronesia",
        "emoji_flag": "ğŸ‡«ğŸ‡²"
    },
    "Turkmenistan": {
        "title": "Turkmenistan",
        "flag": "https://flagcdn.com/tm.svg",
        "phone_code": "+993",
        "native_name": "Ğ¢ÑƒÑ€ĞºĞ¼ĞµĞ½Ğ¸Ñ",
        "emoji_flag": "ğŸ‡¹ğŸ‡²"
    },
    "Anguilla": {
        "title": "Anguilla",
        "flag": "https://flagcdn.com/ai.svg",
        "phone_code": "+1264",
        "native_name": "Anguilla",
        "emoji_flag": "ğŸ‡¦ğŸ‡®"
    },
    "Central African Republic": {
        "title": "Central African Republic",
        "flag": "https://flagcdn.com/cf.svg",
        "phone_code": "+236",
        "native_name": "RÃ©publique centrafricaine",
        "emoji_flag": "ğŸ‡¨ğŸ‡«"
    },
    "Suriname": {
        "title": "Suriname",
        "flag": "https://flagcdn.com/sr.svg",
        "phone_code": "+597",
        "native_name": "Suriname",
        "emoji_flag": "ğŸ‡¸ğŸ‡·"
    },
    "Belgium": {
        "title": "Belgium",
        "flag": "https://flagcdn.com/be.svg",
        "phone_code": "+32",
        "native_name": "Belgien",
        "emoji_flag": "ğŸ‡§ğŸ‡ª"
    },
    "Sweden": {
        "title": "Sweden",
        "flag": "https://flagcdn.com/se.svg",
        "phone_code": "+46",
        "native_name": "Sverige",
        "emoji_flag": "ğŸ‡¸ğŸ‡ª"
    },
    "Bolivia": {
        "title": "Bolivia",
        "flag": "https://flagcdn.com/bo.svg",
        "phone_code": "+591",
        "native_name": "Wuliwya",
        "emoji_flag": "ğŸ‡§ğŸ‡´"
    },
    "Montenegro": {
        "title": "Montenegro",
        "flag": "https://flagcdn.com/me.svg",
        "phone_code": "+382",
        "native_name": "Ğ¦Ñ€Ğ½Ğ° Ğ“Ğ¾Ñ€Ğ°",
        "emoji_flag": "ğŸ‡²ğŸ‡ª"
    },
    "Mozambique": {
        "title": "Mozambique",
        "flag": "https://flagcdn.com/mz.svg",
        "phone_code": "+258",
        "native_name": "MoÃ§ambique",
        "emoji_flag": "ğŸ‡²ğŸ‡¿"
    },
    "Latvia": {
        "title": "Latvia",
        "flag": "https://flagcdn.com/lv.svg",
        "phone_code": "+371",
        "native_name": "Latvija",
        "emoji_flag": "ğŸ‡±ğŸ‡»"
    },
    "Malawi": {
        "title": "Malawi",
        "flag": "https://flagcdn.com/mw.svg",
        "phone_code": "+265",
        "native_name": "Malawi",
        "emoji_flag": "ğŸ‡²ğŸ‡¼"
    },
    "Mali": {
        "title": "Mali",
        "flag": "https://flagcdn.com/ml.svg",
        "phone_code": "+223",
        "native_name": "Mali",
        "emoji_flag": "ğŸ‡²ğŸ‡±"
    },
    "Vatican City": {
        "title": "Vatican City",
        "flag": "https://flagcdn.com/va.svg",
        "phone_code": "+3906698",
        "native_name": "Vaticano",
        "emoji_flag": "ğŸ‡»ğŸ‡¦"
    },
    "Montserrat": {
        "title": "Montserrat",
        "flag": "https://flagcdn.com/ms.svg",
        "phone_code": "+1664",
        "native_name": "Montserrat",
        "emoji_flag": "ğŸ‡²ğŸ‡¸"
    },
    "Austria": {
        "title": "Austria",
        "flag": "https://flagcdn.com/at.svg",
        "phone_code": "+43",
        "native_name": "",
        "emoji_flag": "ğŸ‡¦ğŸ‡¹"
    },
    "Albania": {
        "title": "Albania",
        "flag": "https://flagcdn.com/al.svg",
        "phone_code": "+355",
        "native_name": "ShqipÃ«ria",
        "emoji_flag": "ğŸ‡¦ğŸ‡±"
    },
    "British Virgin Islands": {
        "title": "British Virgin Islands",
        "flag": "https://flagcdn.com/vg.svg",
        "phone_code": "+1284",
        "native_name": "British Virgin Islands",
        "emoji_flag": "ğŸ‡»ğŸ‡¬"
    },
    "Zambia": {
        "title": "Zambia",
        "flag": "https://flagcdn.com/zm.svg",
        "phone_code": "+260",
        "native_name": "Zambia",
        "emoji_flag": "ğŸ‡¿ğŸ‡²"
    },
    "French Guiana": {
        "title": "French Guiana",
        "flag": "https://flagcdn.com/gf.svg",
        "phone_code": "+594",
        "native_name": "Guyane franÃ§aise",
        "emoji_flag": "ğŸ‡¬ğŸ‡«"
    },
    "Liechtenstein": {
        "title": "Liechtenstein",
        "flag": "https://flagcdn.com/li.svg",
        "phone_code": "+423",
        "native_name": "Liechtenstein",
        "emoji_flag": "ğŸ‡±ğŸ‡®"
    },
    "Qatar": {
        "title": "Qatar",
        "flag": "https://flagcdn.com/qa.svg",
        "phone_code": "+974",
        "native_name": "Ù‚Ø·Ø±",
        "emoji_flag": "ğŸ‡¶ğŸ‡¦"
    },
    "Solomon Islands": {
        "title": "Solomon Islands",
        "flag": "https://flagcdn.com/sb.svg",
        "phone_code": "+677",
        "native_name": "Solomon Islands",
        "emoji_flag": "ğŸ‡¸ğŸ‡§"
    },
    "Nauru": {
        "title": "Nauru",
        "flag": "https://flagcdn.com/nr.svg",
        "phone_code": "+674",
        "native_name": "Nauru",
        "emoji_flag": "ğŸ‡³ğŸ‡·"
    },
    "Greece": {
        "title": "Greece",
        "flag": "https://flagcdn.com/gr.svg",
        "phone_code": "+30",
        "native_name": "Î•Î»Î»Î¬Î´Î±",
        "emoji_flag": "ğŸ‡¬ğŸ‡·"
    },
    "Libya": {
        "title": "Libya",
        "flag": "https://flagcdn.com/ly.svg",
        "phone_code": "+218",
        "native_name": "â€Ù„ÙŠØ¨ÙŠØ§",
        "emoji_flag": "ğŸ‡±ğŸ‡¾"
    },
    "Guinea-Bissau": {
        "title": "Guinea-Bissau",
        "flag": "https://flagcdn.com/gw.svg",
        "phone_code": "+245",
        "native_name": "GuinÃ©-Bissau",
        "emoji_flag": "ğŸ‡¬ğŸ‡¼"
    },
    "Barbados": {
        "title": "Barbados",
        "flag": "https://flagcdn.com/bb.svg",
        "phone_code": "+1246",
        "native_name": "Barbados",
        "emoji_flag": "ğŸ‡§ğŸ‡§"
    },
    "Honduras": {
        "title": "Honduras",
        "flag": "https://flagcdn.com/hn.svg",
        "phone_code": "+504",
        "native_name": "Honduras",
        "emoji_flag": "ğŸ‡­ğŸ‡³"
    },
    "Somalia": {
        "title": "Somalia",
        "flag": "https://flagcdn.com/so.svg",
        "phone_code": "+252",
        "native_name": "Ø§Ù„ØµÙˆÙ…Ø§Ù„â€â€",
        "emoji_flag": "ğŸ‡¸ğŸ‡´"
    },
    "Cayman Islands": {
        "title": "Cayman Islands",
        "flag": "https://flagcdn.com/ky.svg",
        "phone_code": "+1345",
        "native_name": "Cayman Islands",
        "emoji_flag": "ğŸ‡°ğŸ‡¾"
    },
    "Italy": {
        "title": "Italy",
        "flag": "https://flagcdn.com/it.svg",
        "phone_code": "+39",
        "native_name": "Italia",
        "emoji_flag": "ğŸ‡®ğŸ‡¹"
    },
    "Wallis and Futuna": {
        "title": "Wallis and Futuna",
        "flag": "https://flagcdn.com/wf.svg",
        "phone_code": "+681",
        "native_name": "Wallis et Futuna",
        "emoji_flag": "ğŸ‡¼ğŸ‡«"
    },
    "Andorra": {
        "title": "Andorra",
        "flag": "https://flagcdn.com/ad.svg",
        "phone_code": "+376",
        "native_name": "Andorra",
        "emoji_flag": "ğŸ‡¦ğŸ‡©"
    },
    "Ecuador": {
        "title": "Ecuador",
        "flag": "https://flagcdn.com/ec.svg",
        "phone_code": "+593",
        "native_name": "Ecuador",
        "emoji_flag": "ğŸ‡ªğŸ‡¨"
    },
    "Kenya": {
        "title": "Kenya",
        "flag": "https://flagcdn.com/ke.svg",
        "phone_code": "+254",
        "native_name": "Kenya",
        "emoji_flag": "ğŸ‡°ğŸ‡ª"
    },
    "Bahrain": {
        "title": "Bahrain",
        "flag": "https://flagcdn.com/bh.svg",
        "phone_code": "+973",
        "native_name": "â€Ø§Ù„Ø¨Ø­Ø±ÙŠÙ†",
        "emoji_flag": "ğŸ‡§ğŸ‡­"
    },
    "United Kingdom": {
        "title": "United Kingdom",
        "flag": "https://flagcdn.com/gb.svg",
        "phone_code": "+44",
        "native_name": "United Kingdom",
        "emoji_flag": "ğŸ‡¬ğŸ‡§"
    },
    "Guinea": {
        "title": "Guinea",
        "flag": "https://flagcdn.com/gn.svg",
        "phone_code": "+224",
        "native_name": "GuinÃ©e",
        "emoji_flag": "ğŸ‡¬ğŸ‡³"
    },
    "Russia": {
        "title": "Russia",
        "flag": "https://flagcdn.com/ru.svg",
        "phone_code": "+73",
        "native_name": "Ğ Ğ¾ÑÑĞ¸Ñ",
        "emoji_flag": "ğŸ‡·ğŸ‡º"
    },
    "Brunei": {
        "title": "Brunei",
        "flag": "https://flagcdn.com/bn.svg",
        "phone_code": "+673",
        "native_name": "Negara Brunei Darussalam",
        "emoji_flag": "ğŸ‡§ğŸ‡³"
    },
    "Zimbabwe": {
        "title": "Zimbabwe",
        "flag": "https://flagcdn.com/zw.svg",
        "phone_code": "+263",
        "native_name": "Zimbabwe",
        "emoji_flag": "ğŸ‡¿ğŸ‡¼"
    },
    "Guam": {
        "title": "Guam",
        "flag": "https://flagcdn.com/gu.svg",
        "phone_code": "+1671",
        "native_name": "GuÃ¥hÃ¥n",
        "emoji_flag": "ğŸ‡¬ğŸ‡º"
    },
    "Australia": {
        "title": "Australia",
        "flag": "https://flagcdn.com/au.svg",
        "phone_code": "+61",
        "native_name": "Australia",
        "emoji_flag": "ğŸ‡¦ğŸ‡º"
    },
    "Slovenia": {
        "title": "Slovenia",
        "flag": "https://flagcdn.com/si.svg",
        "phone_code": "+386",
        "native_name": "Slovenija",
        "emoji_flag": "ğŸ‡¸ğŸ‡®"
    },
    "Belarus": {
        "title": "Belarus",
        "flag": "https://flagcdn.com/by.svg",
        "phone_code": "+375",
        "native_name": "Ğ‘ĞµĞ»Ğ°Ñ€ÑƒÌÑÑŒ",
        "emoji_flag": "ğŸ‡§ğŸ‡¾"
    },
    "Thailand": {
        "title": "Thailand",
        "flag": "https://flagcdn.com/th.svg",
        "phone_code": "+66",
        "native_name": "à¸›à¸£à¸°à¹€à¸—à¸¨à¹„à¸—à¸¢",
        "emoji_flag": "ğŸ‡¹ğŸ‡­"
    },
    "New Zealand": {
        "title": "New Zealand",
        "flag": "https://flagcdn.com/nz.svg",
        "phone_code": "+64",
        "native_name": "New Zealand",
        "emoji_flag": "ğŸ‡³ğŸ‡¿"
    },
    "Tunisia": {
        "title": "Tunisia",
        "flag": "https://flagcdn.com/tn.svg",
        "phone_code": "+216",
        "native_name": "ØªÙˆÙ†Ø³",
        "emoji_flag": "ğŸ‡¹ğŸ‡³"
    },
    "Marshall Islands": {
        "title": "Marshall Islands",
        "flag": "https://flagcdn.com/mh.svg",
        "phone_code": "+692",
        "native_name": "Marshall Islands",
        "emoji_flag": "ğŸ‡²ğŸ‡­"
    },
    "Sierra Leone": {
        "title": "Sierra Leone",
        "flag": "https://flagcdn.com/sl.svg",
        "phone_code": "+232",
        "native_name": "Sierra Leone",
        "emoji_flag": "ğŸ‡¸ğŸ‡±"
    },
    "Bhutan": {
        "title": "Bhutan",
        "flag": "https://flagcdn.com/bt.svg",
        "phone_code": "+975",
        "native_name": "à½ à½–à¾²à½´à½‚à¼‹à½¡à½´à½£à¼‹",
        "emoji_flag": "ğŸ‡§ğŸ‡¹"
    },
    "United States": {
        "title": "United States",
        "flag": "https://flagcdn.com/us.svg",
        "phone_code": "+1201",
        "native_name": "United States",
        "emoji_flag": "ğŸ‡ºğŸ‡¸"
    },
    "Switzerland": {
        "title": "Switzerland",
        "flag": "https://flagcdn.com/ch.svg",
        "phone_code": "+41",
        "native_name": "Suisse",
        "emoji_flag": "ğŸ‡¨ğŸ‡­"
    },
    "Falkland Islands": {
        "title": "Falkland Islands",
        "flag": "https://flagcdn.com/fk.svg",
        "phone_code": "+500",
        "native_name": "Falkland Islands",
        "emoji_flag": "ğŸ‡«ğŸ‡°"
    },
    "Cocos (Keeling) Islands": {
        "title": "Cocos (Keeling) Islands",
        "flag": "https://flagcdn.com/cc.svg",
        "phone_code": "+61",
        "native_name": "Cocos (Keeling) Islands",
        "emoji_flag": "ğŸ‡¨ğŸ‡¨"
    },
    "Gabon": {
        "title": "Gabon",
        "flag": "https://flagcdn.com/ga.svg",
        "phone_code": "+241",
        "native_name": "Gabon",
        "emoji_flag": "ğŸ‡¬ğŸ‡¦"
    },
    "Dominica": {
        "title": "Dominica",
        "flag": "https://flagcdn.com/dm.svg",
        "phone_code": "+1767",
        "native_name": "Dominica",
        "emoji_flag": "ğŸ‡©ğŸ‡²"
    },
    "Canada": {
        "title": "Canada",
        "flag": "https://flagcdn.com/ca.svg",
        "phone_code": "+1",
        "native_name": "Canada",
        "emoji_flag": "ğŸ‡¨ğŸ‡¦"
    },
    "Trinidad and Tobago": {
        "title": "Trinidad and Tobago",
        "flag": "https://flagcdn.com/tt.svg",
        "phone_code": "+1868",
        "native_name": "Trinidad and Tobago",
        "emoji_flag": "ğŸ‡¹ğŸ‡¹"
    },
    "Puerto Rico": {
        "title": "Puerto Rico",
        "flag": "https://flagcdn.com/pr.svg",
        "phone_code": "+1787",
        "native_name": "Puerto Rico",
        "emoji_flag": "ğŸ‡µğŸ‡·"
    },
    "Singapore": {
        "title": "Singapore",
        "flag": "https://flagcdn.com/sg.svg",
        "phone_code": "+65",
        "native_name": "Singapore",
        "emoji_flag": "ğŸ‡¸ğŸ‡¬"
    },
    "Hungary": {
        "title": "Hungary",
        "flag": "https://flagcdn.com/hu.svg",
        "phone_code": "+36",
        "native_name": "MagyarorszÃ¡g",
        "emoji_flag": "ğŸ‡­ğŸ‡º"
    },
    "Costa Rica": {
        "title": "Costa Rica",
        "flag": "https://flagcdn.com/cr.svg",
        "phone_code": "+506",
        "native_name": "Costa Rica",
        "emoji_flag": "ğŸ‡¨ğŸ‡·"
    },
    "Israel": {
        "title": "Israel",
        "flag": "https://flagcdn.com/il.svg",
        "phone_code": "+972",
        "native_name": "Ø¥Ø³Ø±Ø§Ø¦ÙŠÙ„",
        "emoji_flag": "ğŸ‡®ğŸ‡±"
    },
    "Bulgaria": {
        "title": "Bulgaria",
        "flag": "https://flagcdn.com/bg.svg",
        "phone_code": "+359",
        "native_name": "Ğ‘ÑŠĞ»Ğ³Ğ°Ñ€Ğ¸Ñ",
        "emoji_flag": "ğŸ‡§ğŸ‡¬"
    },
    "Azerbaijan": {
        "title": "Azerbaijan",
        "flag": "https://flagcdn.com/az.svg",
        "phone_code": "+994",
        "native_name": "AzÉ™rbaycan",
        "emoji_flag": "ğŸ‡¦ğŸ‡¿"
    },
    "Timor-Leste": {
        "title": "Timor-Leste",
        "flag": "https://flagcdn.com/tl.svg",
        "phone_code": "+670",
        "native_name": "Timor-Leste",
        "emoji_flag": "ğŸ‡¹ğŸ‡±"
    },
    "Iran": {
        "title": "Iran",
        "flag": "https://flagcdn.com/ir.svg",
        "phone_code": "+98",
        "native_name": "Ø§ÛŒØ±Ø§Ù†",
        "emoji_flag": "ğŸ‡®ğŸ‡·"
    },
    "Croatia": {
        "title": "Croatia",
        "flag": "https://flagcdn.com/hr.svg",
        "phone_code": "+385",
        "native_name": "Hrvatska",
        "emoji_flag": "ğŸ‡­ğŸ‡·"
    },
    "Ivory Coast": {
        "title": "Ivory Coast",
        "flag": "https://flagcdn.com/ci.svg",
        "phone_code": "+225",
        "native_name": "CÃ´te d'Ivoire",
        "emoji_flag": "ğŸ‡¨ğŸ‡®"
    }
}